{"type": "FeatureCollection", "features": [{"type": "Feature", "id": "BG.ACR", "properties": {"code": "ACR", "name": "Alder Creek", "instrumentType": "UNK", "source": "BG", "network": "BG", "commType": "UNK", "location": "", "intensity": 1.0, "intensity_flag": "", "intensity_stddev": 0.63, "pga": 0.0039, "pgv": 0.0004, "distance": 287.288, "elev": null, "vs30": 760.0, "channels": [{"name": "--.CNN", "amplitudes": [{"name": "pga", "value": 0.0039, "units": "%g", "flag": "0", "ln_sigma": 0.0}, {"name": "pgv", "value": 0.0004, "units": "cm/s", "flag": "0", "ln_sigma": 0.0}, {"name": "sa(0.3)", "value": 0.0006, "units": "%g", "flag": "0", "ln_sigma": 0.0}, {"name": "sa(1.0)", "value": 0.0005, "units": "%g", "flag": "0", "ln_sigma": 0.0}, {"name": "sa(3.0)", "value": 0.0002, "units": "%g", "flag": "0", "ln_sigma": 0.0}]}], "station_type": "seismic", "nresp": "null", "predictions": [{"name": "pgv", "value": 0.0013, "value_rock": 0.0013, "value_soil": 0.0038, "units": "cm/s", "ln_tau": 0.3708, "ln_phi": 0.6741, "ln_sigma": 0.7693, "ln_sigma_rock": 0.7696, "ln_sigma_soil": 0.7524, "ln_bias": -0.3355, "ln_bias_sigma": 0.1441}, {"name": "pga", "value": 0.0013, "value_rock": 0.0013, "value_soil": 0.0026, "units": "%g", "ln_tau": 0.4189, "ln_phi": 0.7409, "ln_sigma": 0.8511, "ln_sigma_rock": 0.8518, "ln_sigma_soil": 0.8363, "ln_bias": -0.3448, "ln_bias_sigma": 0.1587}, {"name": "sa(0.3)", "value": 0.0032, "value_rock": 0.0032, "value_soil": 0.0105, "units": "%g", "ln_tau": 0.4021, "ln_phi": 0.7566, "ln_sigma": 0.8569, "ln_sigma_rock": 0.8586, "ln_sigma_soil": 0.8473, "ln_bias": -0.2629, "ln_bias_sigma": 0.1575}, {"name": "sa(3.0)", "value": 0.0001, "value_rock": 0.0001, "value_soil": 0.0006, "units": "%g", "ln_tau": 0.4902, "ln_phi": 0.5824, "ln_sigma": 0.7612, "ln_sigma_rock": 0.7618, "ln_sigma_soil": 0.7618, "ln_bias": 0.2023, "ln_bias_sigma": 0.1336}, {"name": "sa(1.0)", "value": 0.0011, "value_rock": 0.0011, "value_soil": 0.0048, "units": "%g", "ln_tau": 0.4712, "ln_phi": 0.6354, "ln_sigma": 0.791, "ln_sigma_rock": 0.7915, "ln_sigma_soil": 0.7876, "ln_bias": -0.1826, "ln_bias_sigma": 0.1398}, {"name": "mmi", "value": 1.0, "value_rock": 1.0, "value_soil": 1.0, "units": "intensity", "tau": 0.3494, "phi": 0.8947, "sigma": 0.9605, "sigma_rock": 0.9607, "sigma_soil": 0.9485, "bias": -0.0851, "bias_sigma": 0.1925}], "mmi_from_pgm": [{"name": "pgv", "value": 1.0, "sigma": 0.63, "flag": "0"}, {"name": "pga", "value": 1.0, "sigma": 0.66, "flag": "0"}, {"name": "sa(0.3)", "value": 1.0, "sigma": 0.82, "flag": "0"}, {"name": "sa(3.0)", "value": 1.0, "sigma": 0.89, "flag": "0"}, {"name": "sa(1.0)", "value": 1.0, "sigma": 0.75, "flag": "0"}], "distance_stddev": 0.718, "distances": {"repi": 288.154, "rhypo": 288.161, "rjb": 287.406, "rjb_var": 0.45, "rrup": 287.288, "rrup_var": 0.515, "rx": 0.0, "ry0": 0.0}}, "geometry": {"type": "Point", "coordinates": [-122.7603, 38.8367]}}, {"type": "Feature", "id": "BG.ESM", "properties": {"code": "ESM", "name": "Engels Strong Motion", "instrumentType": "UNK", "source": "BG", "network": "BG", "commType": "UNK", "location": "", "intensity": 1.0, "intensity_flag": "", "intensity_stddev": 0.63, "pga": 0.004, "pgv": 0.0003, "distance": 281.748, "elev": null, "vs30": 760.0, "channels": [{"name": "--.CNE", "amplitudes": [{"name": "pga", "value": 0.004, "units": "%g", "flag": "0", "ln_sigma": 0.0}, {"name": "pgv", "value": 0.0003, "units": "cm/s", "flag": "0", "ln_sigma": 0.0}, {"name": "sa(0.3)", "value": 0.0012, "units": "%g", "flag": "0", "ln_sigma": 0.0}, {"name": "sa(1.0)", "value": 0.0004, "units": "%g", "flag": "0", "ln_sigma": 0.0}, {"name": "sa(3.0)", "value": 0.0001, "units": "%g", "flag": "0", "ln_sigma": 0.0}]}, {"name": "--.CNN", "amplitudes": [{"name": "pga", "value": 0.0037, "units": "%g", "flag": "0", "ln_sigma": 0.0}, {"name": "pgv", "value": 0.0003, "units": "cm/s", "flag": "0", "ln_sigma": 0.0}, {"name": "sa(0.3)", "value": 0.0015, "units": "%g", "flag": "0", "ln_sigma": 0.0}, {"name": "sa(1.0)", "value": 0.0005, "units": "%g", "flag": "0", "ln_sigma": 0.0}, {"name": "sa(3.0)", "value": 0.0001, "units": "%g", "flag": "0", "ln_sigma": 0.0}]}], "station_type": "seismic", "nresp": "null", "predictions": [{"name": "pgv", "value": 0.0014, "value_rock": 0.0014, "value_soil": 0.0039, "units": "cm/s", "ln_tau": 0.3708, "ln_phi": 0.6741, "ln_sigma": 0.7693, "ln_sigma_rock": 0.7696, "ln_sigma_soil": 0.7524, "ln_bias": -0.3355, "ln_bias_sigma": 0.1441}, {"name": "pga", "value": 0.0014, "value_rock": 0.0014, "value_soil": 0.0028, "units": "%g", "ln_tau": 0.4189, "ln_phi": 0.7409, "ln_sigma": 0.8511, "ln_sigma_rock": 0.8518, "ln_sigma_soil": 0.8363, "ln_bias": -0.3448, "ln_bias_sigma": 0.1587}, {"name": "sa(0.3)", "value": 0.0034, "value_rock": 0.0034, "value_soil": 0.0112, "units": "%g", "ln_tau": 0.4021, "ln_phi": 0.7566, "ln_sigma": 0.8569, "ln_sigma_rock": 0.8586, "ln_sigma_soil": 0.8473, "ln_bias": -0.2629, "ln_bias_sigma": 0.1575}, {"name": "sa(3.0)", "value": 0.0001, "value_rock": 0.0001, "value_soil": 0.0006, "units": "%g", "ln_tau": 0.4902, "ln_phi": 0.5824, "ln_sigma": 0.7612, "ln_sigma_rock": 0.7618, "ln_sigma_soil": 0.7618, "ln_bias": 0.2023, "ln_bias_sigma": 0.1336}, {"name": "sa(1.0)", "value": 0.0012, "value_rock": 0.0012, "value_soil": 0.0049, "units": "%g", "ln_tau": 0.4712, "ln_phi": 0.6354, "ln_sigma": 0.791, "ln_sigma_rock": 0.7915, "ln_sigma_soil": 0.7876, "ln_bias": -0.1826, "ln_bias_sigma": 0.1398}, {"name": "mmi", "value": 1.0, "value_rock": 1.0, "value_soil": 1.0, "units": "intensity", "tau": 0.3494, "phi": 0.8947, "sigma": 0.9605, "sigma_rock": 0.9607, "sigma_soil": 0.9485, "bias": -0.0851, "bias_sigma": 0.1925}], "mmi_from_pgm": [{"name": "pgv", "value": 1.0, "sigma": 0.63, "flag": "0"}, {"name": "pga", "value": 1.0, "sigma": 0.66, "flag": "0"}, {"name": "sa(0.3)", "value": 1.0, "sigma": 0.82, "flag": "0"}, {"name": "sa(3.0)", "value": 1.0, "sigma": 0.89, "flag": "0"}, {"name": "sa(1.0)", "value": 1.0, "sigma": 0.75, "flag": "0"}], "distance_stddev": 0.718, "distances": {"repi": 282.614, "rhypo": 282.621, "rjb": 281.865, "rjb_var": 0.45, "rrup": 281.748, "rrup_var": 0.515, "rx": 0.0, "ry0": 0.0}}, "geometry": {"type": "Point", "coordinates": [-122.7026, 38.7759]}}, {"type": "Feature", "id": "BK.AONC", "properties": {"code": "AONC", "name": "Abbey of New Clairvaux, Vina, CA", "instrumentType": "UNK", "source": "BK", "network": "BK", "commType": "UNK", "location": "", "intensity": 1.0, "intensity_flag": "", "intensity_stddev": 0.63, "pga": 0.0031, "pgv": 0.0035, "distance": 271.273, "elev": null, "vs30": 760.0, "channels": [{"name": "00.HHE", "amplitudes": [{"name": "pga", "value": 0.0031, "units": "%g", "flag": "0", "ln_sigma": 0.0}, {"name": "pgv", "value": 0.0026, "units": "cm/s", "flag": "0", "ln_sigma": 0.0}, {"name": "sa(0.3)", "value": 0.0077, "units": "%g", "flag": "0", "ln_sigma": 0.0}, {"name": "sa(1.0)", "value": 0.0052, "units": "%g", "flag": "0", "ln_sigma": 0.0}, {"name": "sa(3.0)", "value": 0.0005, "units": "%g", "flag": "0", "ln_sigma": 0.0}]}, {"name": "00.HHN", "amplitudes": [{"name": "pga", "value": 0.0029, "units": "%g", "flag": "0", "ln_sigma": 0.0}, {"name": "pgv", "value": 0.0035, "units": "cm/s", "flag": "0", "ln_sigma": 0.0}, {"name": "sa(0.3)", "value": 0.007, "units": "%g", "flag": "0", "ln_sigma": 0.0}, {"name": "sa(1.0)", "value": 0.0056, "units": "%g", "flag": "0", "ln_sigma": 0.0}, {"name": "sa(3.0)", "value": 0.0013, "units": "%g", "flag": "0", "ln_sigma": 0.0}]}, {"name": "00.HHZ", "amplitudes": [{"name": "pga", "value": 0.0015, "units": "%g", "flag": "0", "ln_sigma": 0.0}, {"name": "pgv", "value": 0.0011, "units": "cm/s", "flag": "0", "ln_sigma": 0.0}, {"name": "sa(0.3)", "value": 0.0037, "units": "%g", "flag": "0", "ln_sigma": 0.0}, {"name": "sa(1.0)", "value": 0.0019, "units": "%g", "flag": "0", "ln_sigma": 0.0}, {"name": "sa(3.0)", "value": 0.0002, "units": "%g", "flag": "0", "ln_sigma": 0.0}]}], "station_type": "seismic", "nresp": "null", "predictions": [{"name": "pgv", "value": 0.0015, "value_rock": 0.0015, "value_soil": 0.0043, "units": "cm/s", "ln_tau": 0.3708, "ln_phi": 0.6741, "ln_sigma": 0.7693, "ln_sigma_rock": 0.7696, "ln_sigma_soil": 0.7524, "ln_bias": -0.3355, "ln_bias_sigma": 0.1441}, {"name": "pga", "value": 0.0016, "value_rock": 0.0016, "value_soil": 0.0032, "units": "%g", "ln_tau": 0.4189, "ln_phi": 0.7409, "ln_sigma": 0.8511, "ln_sigma_rock": 0.8518, "ln_sigma_soil": 0.8363, "ln_bias": -0.3448, "ln_bias_sigma": 0.1587}, {"name": "sa(0.3)", "value": 0.0038, "value_rock": 0.0038, "value_soil": 0.0125, "units": "%g", "ln_tau": 0.4021, "ln_phi": 0.7566, "ln_sigma": 0.8569, "ln_sigma_rock": 0.8586, "ln_sigma_soil": 0.8473, "ln_bias": -0.2629, "ln_bias_sigma": 0.1575}, {"name": "sa(3.0)", "value": 0.0002, "value_rock": 0.0002, "value_soil": 0.0006, "units": "%g", "ln_tau": 0.4902, "ln_phi": 0.5824, "ln_sigma": 0.7612, "ln_sigma_rock": 0.7618, "ln_sigma_soil": 0.7618, "ln_bias": 0.2023, "ln_bias_sigma": 0.1336}, {"name": "sa(1.0)", "value": 0.0012, "value_rock": 0.0012, "value_soil": 0.0053, "units": "%g", "ln_tau": 0.4712, "ln_phi": 0.6354, "ln_sigma": 0.791, "ln_sigma_rock": 0.7915, "ln_sigma_soil": 0.7876, "ln_bias": -0.1826, "ln_bias_sigma": 0.1398}, {"name": "mmi", "value": 1.0, "value_rock": 1.0, "value_soil": 1.0, "units": "intensity", "tau": 0.3494, "phi": 0.8947, "sigma": 0.9605, "sigma_rock": 0.9607, "sigma_soil": 0.9485, "bias": -0.0851, "bias_sigma": 0.1925}], "mmi_from_pgm": [{"name": "pgv", "value": 1.0, "sigma": 0.63, "flag": "0"}, {"name": "pga", "value": 1.0, "sigma": 0.66, "flag": "0"}, {"name": "sa(0.3)", "value": 1.0, "sigma": 0.82, "flag": "0"}, {"name": "sa(3.0)", "value": 1.0, "sigma": 0.89, "flag": "0"}, {"name": "sa(1.0)", "value": 1.0, "sigma": 0.75, "flag": "0"}], "distance_stddev": 0.718, "distances": {"repi": 272.138, "rhypo": 272.145, "rjb": 271.39, "rjb_var": 0.449, "rrup": 271.273, "rrup_var": 0.516, "rx": 0.0, "ry0": 0.0}}, "geometry": {"type": "Point", "coordinates": [-122.0608, 39.9398]}}, {"type": "Feature", "id": "BK.BABI", "properties": {"code": "BABI", "name": "Babies Gulch, Panoche, CA", "instrumentType": "UNK", "source": "BK", "network": "BK", "commType": "UNK", "location": "", "intensity": 1.0, "intensity_flag": "", "intensity_stddev": 0.63, "pga": 0.0039, "pgv": 0.0027, "distance": 256.372, "elev": null, "vs30": 760.0, "channels": [{"name": "00.HHN", "amplitudes": [{"name": "pga", "value": 0.0039, "units": "%g", "flag": "0", "ln_sigma": 0.0}, {"name": "pgv", "value": 0.0027, "units": "cm/s", "flag": "0", "ln_sigma": 0.0}, {"name": "sa(0.3)", "value": 0.0165, "units": "%g", "flag": "0", "ln_sigma": 0.0}, {"name": "sa(1.0)", "value": 0.0023, "units": "%g", "flag": "0", "ln_sigma": 0.0}, {"name": "sa(3.0)", "value": 0.0003, "units": "%g", "flag": "0", "ln_sigma": 0.0}]}], "station_type": "seismic", "nresp": "null", "predictions": [{"name": "pgv", "value": 0.0017, "value_rock": 0.0017, "value_soil": 0.0049, "units": "cm/s", "ln_tau": 0.3708, "ln_phi": 0.6728, "ln_sigma": 0.7682, "ln_sigma_rock": 0.7685, "ln_sigma_soil": 0.7513, "ln_bias": -0.3355, "ln_bias_sigma": 0.1441}, {"name": "pga", "value": 0.0019, "value_rock": 0.0019, "value_soil": 0.0039, "units": "%g", "ln_tau": 0.4189, "ln_phi": 0.7395, "ln_sigma": 0.8499, "ln_sigma_rock": 0.8505, "ln_sigma_soil": 0.8351, "ln_bias": -0.3448, "ln_bias_sigma": 0.1587}, {"name": "sa(0.3)", "value": 0.0045, "value_rock": 0.0045, "value_soil": 0.0148, "units": "%g", "ln_tau": 0.4021, "ln_phi": 0.755, "ln_sigma": 0.8554, "ln_sigma_rock": 0.8571, "ln_sigma_soil": 0.8458, "ln_bias": -0.2629, "ln_bias_sigma": 0.1575}, {"name": "sa(3.0)", "value": 0.0002, "value_rock": 0.0002, "value_soil": 0.0007, "units": "%g", "ln_tau": 0.4902, "ln_phi": 0.5824, "ln_sigma": 0.7612, "ln_sigma_rock": 0.7618, "ln_sigma_soil": 0.7618, "ln_bias": 0.2023, "ln_bias_sigma": 0.1336}, {"name": "sa(1.0)", "value": 0.0014, "value_rock": 0.0014, "value_soil": 0.0059, "units": "%g", "ln_tau": 0.4712, "ln_phi": 0.6339, "ln_sigma": 0.7898, "ln_sigma_rock": 0.7904, "ln_sigma_soil": 0.7864, "ln_bias": -0.1826, "ln_bias_sigma": 0.1398}, {"name": "mmi", "value": 1.0, "value_rock": 1.0, "value_soil": 1.0, "units": "intensity", "tau": 0.3494, "phi": 0.8939, "sigma": 0.9597, "sigma_rock": 0.9599, "sigma_soil": 0.9478, "bias": -0.0851, "bias_sigma": 0.1925}], "mmi_from_pgm": [{"name": "pgv", "value": 1.0, "sigma": 0.63, "flag": "0"}, {"name": "pga", "value": 1.0, "sigma": 0.66, "flag": "0"}, {"name": "sa(0.3)", "value": 1.0, "sigma": 0.82, "flag": "0"}, {"name": "sa(3.0)", "value": 1.0, "sigma": 0.89, "flag": "0"}, {"name": "sa(1.0)", "value": 1.0, "sigma": 0.75, "flag": "0"}], "distance_stddev": 0.718, "distances": {"repi": 257.236, "rhypo": 257.244, "rjb": 256.488, "rjb_var": 0.449, "rrup": 256.372, "rrup_var": 0.516, "rx": 0.0, "ry0": 0.0}}, "geometry": {"type": "Point", "coordinates": [-120.853, 36.5158]}}, {"type": "Feature", "id": "BK.BCCR", "properties": {"code": "BCCR", "name": "Big Chico Creek, Paradise, CA USA", "instrumentType": "UNK", "source": "BK", "network": "BK", "commType": "UNK", "location": "", "intensity": 1.0, "intensity_flag": "", "intensity_stddev": 0.63, "pga": 0.0044, "pgv": 0.004, "distance": 240.668, "elev": null, "vs30": 760.0, "channels": [{"name": "00.HHE", "amplitudes": [{"name": "pga", "value": 0.0037, "units": "%g", "flag": "0", "ln_sigma": 0.0}, {"name": "pgv", "value": 0.0031, "units": "cm/s", "flag": "0", "ln_sigma": 0.0}, {"name": "sa(0.3)", "value": 0.0101, "units": "%g", "flag": "0", "ln_sigma": 0.0}, {"name": "sa(1.0)", "value": 0.006, "units": "%g", "flag": "0", "ln_sigma": 0.0}, {"name": "sa(3.0)", "value": 0.0007, "units": "%g", "flag": "0", "ln_sigma": 0.0}]}, {"name": "00.HHN", "amplitudes": [{"name": "pga", "value": 0.0044, "units": "%g", "flag": "0", "ln_sigma": 0.0}, {"name": "pgv", "value": 0.004, "units": "cm/s", "flag": "0", "ln_sigma": 0.0}, {"name": "sa(0.3)", "value": 0.011, "units": "%g", "flag": "0", "ln_sigma": 0.0}, {"name": "sa(1.0)", "value": 0.0061, "units": "%g", "flag": "0", "ln_sigma": 0.0}, {"name": "sa(3.0)", "value": 0.0006, "units": "%g", "flag": "0", "ln_sigma": 0.0}]}, {"name": "00.HHZ", "amplitudes": [{"name": "pga", "value": 0.0032, "units": "%g", "flag": "0", "ln_sigma": 0.0}, {"name": "pgv", "value": 0.003, "units": "cm/s", "flag": "0", "ln_sigma": 0.0}, {"name": "sa(0.3)", "value": 0.0109, "units": "%g", "flag": "0", "ln_sigma": 0.0}, {"name": "sa(1.0)", "value": 0.0049, "units": "%g", "flag": "0", "ln_sigma": 0.0}, {"name": "sa(3.0)", "value": 0.0003, "units": "%g", "flag": "0", "ln_sigma": 0.0}]}], "station_type": "seismic", "nresp": "null", "predictions": [{"name": "pgv", "value": 0.0019, "value_rock": 0.0019, "value_soil": 0.0056, "units": "cm/s", "ln_tau": 0.3708, "ln_phi": 0.6715, "ln_sigma": 0.7671, "ln_sigma_rock": 0.7673, "ln_sigma_soil": 0.7502, "ln_bias": -0.3355, "ln_bias_sigma": 0.1441}, {"name": "pga", "value": 0.0024, "value_rock": 0.0024, "value_soil": 0.0048, "units": "%g", "ln_tau": 0.4189, "ln_phi": 0.7377, "ln_sigma": 0.8484, "ln_sigma_rock": 0.8489, "ln_sigma_soil": 0.8336, "ln_bias": -0.3448, "ln_bias_sigma": 0.1587}, {"name": "sa(0.3)", "value": 0.0054, "value_rock": 0.0054, "value_soil": 0.0176, "units": "%g", "ln_tau": 0.4021, "ln_phi": 0.7527, "ln_sigma": 0.8534, "ln_sigma_rock": 0.855, "ln_sigma_soil": 0.8438, "ln_bias": -0.2629, "ln_bias_sigma": 0.1575}, {"name": "sa(3.0)", "value": 0.0002, "value_rock": 0.0002, "value_soil": 0.0008, "units": "%g", "ln_tau": 0.4902, "ln_phi": 0.5824, "ln_sigma": 0.7612, "ln_sigma_rock": 0.7618, "ln_sigma_soil": 0.7618, "ln_bias": 0.2023, "ln_bias_sigma": 0.1336}, {"name": "sa(1.0)", "value": 0.0015, "value_rock": 0.0015, "value_soil": 0.0065, "units": "%g", "ln_tau": 0.4712, "ln_phi": 0.6321, "ln_sigma": 0.7884, "ln_sigma_rock": 0.7889, "ln_sigma_soil": 0.785, "ln_bias": -0.1826, "ln_bias_sigma": 0.1398}, {"name": "mmi", "value": 1.0, "value_rock": 1.0, "value_soil": 1.0, "units": "intensity", "tau": 0.3494, "phi": 0.893, "sigma": 0.9589, "sigma_rock": 0.9591, "sigma_soil": 0.947, "bias": -0.0851, "bias_sigma": 0.1925}], "mmi_from_pgm": [{"name": "pgv", "value": 1.0, "sigma": 0.63, "flag": "0"}, {"name": "pga", "value": 1.0, "sigma": 0.66, "flag": "0"}, {"name": "sa(0.3)", "value": 1.0, "sigma": 0.82, "flag": "0"}, {"name": "sa(3.0)", "value": 1.0, "sigma": 0.89, "flag": "0"}, {"name": "sa(1.0)", "value": 1.0, "sigma": 0.75, "flag": "0"}], "distance_stddev": 0.719, "distances": {"repi": 241.53, "rhypo": 241.538, "rjb": 240.782, "rjb_var": 0.449, "rrup": 240.668, "rrup_var": 0.516, "rx": 0.0, "ry0": 0.0}}, "geometry": {"type": "Point", "coordinates": [-121.7342, 39.8186]}}, {"type": "Feature", "id": "BK.BKS", "properties": {"code": "BKS", "name": "Byerly Seismographic Vault, Berkeley, CA, USA", "instrumentType": "UNK", "source": "BK", "network": "BK", "commType": "UNK", "location": "", "intensity": 1.0, "intensity_flag": "", "intensity_stddev": 0.63, "pga": 0.0024, "pgv": 0.0019, "distance": 252.85, "elev": null, "vs30": 760.0, "channels": [{"name": "00.HHE", "amplitudes": [{"name": "pga", "value": 0.0024, "units": "%g", "flag": "0", "ln_sigma": 0.0}, {"name": "pgv", "value": 0.0019, "units": "cm/s", "flag": "0", "ln_sigma": 0.0}, {"name": "sa(0.3)", "value": 0.0082, "units": "%g", "flag": "0", "ln_sigma": 0.0}, {"name": "sa(1.0)", "value": 0.0013, "units": "%g", "flag": "0", "ln_sigma": 0.0}, {"name": "sa(3.0)", "value": 0.0005, "units": "%g", "flag": "0", "ln_sigma": 0.0}]}, {"name": "00.HHN", "amplitudes": [{"name": "pga", "value": 0.0015, "units": "%g", "flag": "0", "ln_sigma": 0.0}, {"name": "pgv", "value": 0.0012, "units": "cm/s", "flag": "0", "ln_sigma": 0.0}, {"name": "sa(0.3)", "value": 0.008, "units": "%g", "flag": "0", "ln_sigma": 0.0}, {"name": "sa(1.0)", "value": 0.0011, "units": "%g", "flag": "0", "ln_sigma": 0.0}, {"name": "sa(3.0)", "value": 0.0002, "units": "%g", "flag": "0", "ln_sigma": 0.0}]}, {"name": "00.HHZ", "amplitudes": [{"name": "pga", "value": 0.0013, "units": "%g", "flag": "0", "ln_sigma": 0.0}, {"name": "pgv", "value": 0.0007, "units": "cm/s", "flag": "0", "ln_sigma": 0.0}, {"name": "sa(0.3)", "value": 0.0039, "units": "%g", "flag": "0", "ln_sigma": 0.0}, {"name": "sa(1.0)", "value": 0.0009, "units": "%g", "flag": "0", "ln_sigma": 0.0}, {"name": "sa(3.0)", "value": 0.0001, "units": "%g", "flag": "0", "ln_sigma": 0.0}]}], "station_type": "seismic", "nresp": "null", "predictions": [{"name": "pgv", "value": 0.0017, "value_rock": 0.0017, "value_soil": 0.005, "units": "cm/s", "ln_tau": 0.3708, "ln_phi": 0.6726, "ln_sigma": 0.768, "ln_sigma_rock": 0.7682, "ln_sigma_soil": 0.7511, "ln_bias": -0.3355, "ln_bias_sigma": 0.1441}, {"name": "pga", "value": 0.002, "value_rock": 0.002, "value_soil": 0.0041, "units": "%g", "ln_tau": 0.4189, "ln_phi": 0.7391, "ln_sigma": 0.8495, "ln_sigma_rock": 0.8502, "ln_sigma_soil": 0.8348, "ln_bias": -0.3448, "ln_bias_sigma": 0.1587}, {"name": "sa(0.3)", "value": 0.0047, "value_rock": 0.0047, "value_soil": 0.0154, "units": "%g", "ln_tau": 0.4021, "ln_phi": 0.7545, "ln_sigma": 0.855, "ln_sigma_rock": 0.8567, "ln_sigma_soil": 0.8453, "ln_bias": -0.2629, "ln_bias_sigma": 0.1575}, {"name": "sa(3.0)", "value": 0.0002, "value_rock": 0.0002, "value_soil": 0.0007, "units": "%g", "ln_tau": 0.4902, "ln_phi": 0.5824, "ln_sigma": 0.7612, "ln_sigma_rock": 0.7618, "ln_sigma_soil": 0.7618, "ln_bias": 0.2023, "ln_bias_sigma": 0.1336}, {"name": "sa(1.0)", "value": 0.0014, "value_rock": 0.0014, "value_soil": 0.006, "units": "%g", "ln_tau": 0.4712, "ln_phi": 0.6335, "ln_sigma": 0.7895, "ln_sigma_rock": 0.79, "ln_sigma_soil": 0.7861, "ln_bias": -0.1826, "ln_bias_sigma": 0.1398}, {"name": "mmi", "value": 1.0, "value_rock": 1.0, "value_soil": 1.0, "units": "intensity", "tau": 0.3494, "phi": 0.8937, "sigma": 0.9596, "sigma_rock": 0.9597, "sigma_soil": 0.9476, "bias": -0.0851, "bias_sigma": 0.1925}], "mmi_from_pgm": [{"name": "pgv", "value": 1.0, "sigma": 0.63, "flag": "0"}, {"name": "pga", "value": 1.0, "sigma": 0.66, "flag": "0"}, 