<?xml version="1.0" encoding="UTF-8" standalone="yes"?>
<!DOCTYPE shakemap-data [
<!ELEMENT shakemap-data (earthquake,stationlist)>
<!ELEMENT stationlist (station+)>
<!ATTLIST stationlist
  created	CDATA	#REQUIRED
>

<!ELEMENT station (comp+)>
<!ATTLIST station
  code		CDATA 			#REQUIRED
  name		CDATA 			#REQUIRED
  insttype	CDATA 			#REQUIRED
  lat		CDATA 			#REQUIRED
  lon		CDATA 			#REQUIRED
  source	(SCSN|CGS|NSMP) 	'SCSN'
  netid		CDATA			#REQUIRED
  commtype	(DIG|ANA) 		'DIG'
  dist          CDATA                   '10.0'
  loc		CDATA			''
>

<!ELEMENT comp (acc,vel,psa*)>
<!ATTLIST comp
  name          CDATA  #REQUIRED
  originalname  CDATA  #IMPLIED
>

<!ELEMENT acc EMPTY>
<!ELEMENT vel EMPTY>
<!ELEMENT psa03 EMPTY>
<!ELEMENT psa10 EMPTY>
<!ELEMENT psa30 EMPTY>
<!ATTLIST acc
  value  CDATA         #REQUIRED
  flag   CDATA        ''
>
<!ATTLIST vel
  value CDATA          #REQUIRED
  flag  CDATA         ''
>
<!ATTLIST psa03
  value CDATA          #REQUIRED
  flag  CDATA         ''
>
<!ATTLIST psa10
  value CDATA          #REQUIRED
  flag  CDATA         ''
>
<!ATTLIST psa30
  value CDATA          #REQUIRED
  flag  CDATA         ''
>
<!ELEMENT  earthquake EMPTY>
<!ATTLIST earthquake
  id 		ID	#REQUIRED
  lat		CDATA	#REQUIRED
  lon		CDATA	#REQUIRED
  mag		CDATA	#REQUIRED
  year          CDATA   #REQUIRED
  month         CDATA   #REQUIRED
  day           CDATA   #REQUIRED
  hour          CDATA   #REQUIRED
  minute        CDATA   #REQUIRED
  second        CDATA   #REQUIRED
  timezone      CDATA   #REQUIRED
  depth		CDATA	#REQUIRED
  type		CDATA	#REQUIRED
  locstring	CDATA	#REQUIRED
  pga		CDATA   #REQUIRED
  pgv		CDATA   #REQUIRED
  sp03		CDATA   #REQUIRED
  sp10		CDATA   #REQUIRED
  sp30		CDATA   #REQUIRED
  created	CDATA	#REQUIRED
>
]>
<shakemap-data code_version="3.5" map_version="4">
<earthquake id="us10003yjy" lat="17.83280" lon="-81.86020" mag="5.8" year="2015" month="11" day="16" hour="0" minute="39" second="34" timezone="GMT" depth="9.98" network="us" locstring="CAYMAN ISLANDS REGION" created="1447641611" />
<stationlist created="1447641611">
<station code="CU.MTDJ" name="Mount Denham, Jamaica" insttype="UNK" lat="18.22605" lon="-77.53454" dist="457.414792" source="NEIC" netid="CU" commtype="UNK" loc="" intensity="1.1">
<comp name="BHZ">
<pga value="0.0098" flag="0" />
<pgv value="0.0114" flag="0" />
<psa03 value="0.0080" flag="0" />
<psa10 value="0.0111" flag="0" />
<psa30 value="0.0066" flag="0" />
</comp>
<comp name="BH2">
<pga value="0.0129" flag="0" />
<pgv value="0.0171" flag="0" />
<psa03 value="0.0261" flag="0" />
<psa10 value="0.0187" flag="0" />
<psa30 value="0.0092" flag="0" />
</comp>
<comp name="BH1">
<pga value="0.0109" flag="0" />
<pgv value="0.0282" flag="0" />
<psa03 value="0.0283" flag="0" />
<psa10 value="0.0190" flag="0" />
<psa30 value="0.0096" flag="0" />
</comp>
</station>
<station code="CY.FSCY" name="Frank Sound, Grand Cayman, Cayman Islands" insttype="UNK" lat="19.31285" lon="-81.183529" dist="177.414314" source="NEIC" netid="CY" commtype="UNK" loc="" intensity="2.5">
<comp name="HHE">
<pga value="0.0717" flag="0" />
<pgv value="0.1683" flag="0" />
<psa03 value="0.1833" flag="0" />
<psa10 value="0.1158" flag="0" />
<psa30 value="0.1681" flag="0" />
</comp>
<comp name="HHZ">
<pga value="0.0589" flag="0" />
<pgv value="0.1117" flag="0" />
<psa03 value="0.1348" flag="0" />
<psa10 value="0.1106" flag="0" />
<psa30 value="0.0599" flag="0" />
</comp>
<comp name="HHN">
<pga value="0.0684" flag="0" />
<pgv value="0.1728" flag="0" />
<psa03 value="0.1214" flag="0" />
<psa10 value="0.1333" flag="0" />
<psa30 value="0.0794" flag="0" />
</comp>
</station>
<station code="CY.LCCY" name="Blossom Village, Little Cayman, Cayman Islands" insttype="UNK" lat="19.667603" lon="-80.082133" dist="274.882614" source="NEIC" netid="CY" commtype="UNK" loc="" intensity="1.8">
<comp name="HHE">
<pga value="0.0198" flag="0" />
<pgv value="0.0600" flag="0" />
<psa03 value="0.0420" flag="0" />
<psa10 value="0.0255" flag="0" />
<psa30 value="0.0292" flag="0" />
</comp>
<comp name="HHZ">
<pga value="0.0194" flag="0" />
<pgv value="0.0255" flag="0" />
<psa03 value="0.0414" flag="0" />
<psa10 value="0.0235" flag="0" />
<psa30 value="0.0157" flag="0" />
</comp>
<comp name="HHN">
<pga value="0.0167" flag="0" />
<pgv value="0.0531" flag="0" />
<psa03 value="0.0464" flag="0" />
<psa10 value="0.0240" flag="0" />
<psa30 value="0.0259" flag="0" />
</comp>
</station>

</stationlist>
</shakemap-data>
